{
  "type": "FeatureCollection",
  "features": [
    {
      "type": "Feature",
      "properties": {
        "norad_id": 34056,
        "name": "COSMOS 2251 DEB",
        "group": "cosmos-2251-debris",
        "lat": 8.748887609518107,
        "lon": -99.88265597025044,
        "alt_km": 755.3084462336064,
        "timestamp": "2025-12-09T05:43:21.120027+00:00",
        "meta_object_name": "COSMOS 2251 DEB",
        "meta_object_id": "1993-036JT",
        "meta_epoch": "2025-12-08T17:50:42.516096",
        "meta_mean_motion": 14.20530807,
        "meta_eccentricity": 0.0124292,
        "meta_inclination": 74.0597,
        "meta_ra_of_asc_node": 83.5227,
        "meta_arg_of_pericenter": 132.3899,
        "meta_mean_anomaly": 27.6704,
        "meta_ephemeris_type": 0,
        "meta_classification_type": "U",
        "meta_norad_cat_id": 34056,
        "meta_element_set_no": 999,
        "meta_rev_at_epoch": 86354,
        "meta_bstar": 0.0018699,
        "meta_mean_motion_dot": 4.321e-05,
        "meta_mean_motion_ddot": 0,
        "tle_line1": "1 34056U 93036JT  25342.74354764  .00004321  00000+0  18699-2 0  9999",
        "tle_line2": "2 34056  74.0597  83.5227 0124292 132.3899  27.6704 14.20530807863546"
      },
      "geometry": {
        "type": "Point",
        "coordinates": [
          -99.88265597025044,
          8.748887609518107
        ]
      }
    },
    {
      "type": "Feature",
      "properties": {
        "norad_id": 34058,
        "name": "COSMOS 2251 DEB",
        "group": "cosmos-2251-debris",
        "lat": 46.80155927216186,
        "lon": -158.33776305492654,
        "alt_km": 1220.781913427314,
        "timestamp": "2025-12-09T05:43:21.120037+00:00",
        "meta_object_name": "COSMOS 2251 DEB",
        "meta_object_id": "1993-036JV",
        "meta_epoch": "2025-12-08T20:42:44.095104",
        "meta_mean_motion": 13.56068323,
        "meta_eccentricity": 0.0378116,
        "meta_inclination": 73.9316,
        "meta_ra_of_asc_node": 184.3963,
        "meta_arg_of_pericenter": 180.3732,
        "meta_mean_anomaly": 200.3009,
        "meta_ephemeris_type": 0,
        "meta_classification_type": "U",
        "meta_norad_cat_id": 34058,
        "meta_element_set_no": 999,
        "meta_rev_at_epoch": 83090,
        "meta_bstar": 0.0010404,
        "meta_mean_motion_dot": 1.134e-05,
        "meta_mean_motion_ddot": 0,
        "tle_line1": "1 34058U 93036JV  25342.86301036  .00001134  00000+0  10404-2 0  9993",
        "tle_line2": "2 34058  73.9316 184.3963 0378116 180.3732 200.3009 13.56068323830906"
      },
      "geometry": {
        "type": "Point",
        "coordinates": [
          -158.33776305492654,
          46.80155927216186
        ]
      }
    },
    {
      "type": "Feature",
      "properties": {
        "norad_id": 34059,
        "name": "COSMOS 2251 DEB",
        "group": "cosmos-2251-debris",
        "lat": 44.09980678208298,
        "lon": -3.2214441544126644,
        "alt_km": 721.7429366752813,
        "timestamp": "2025-12-09T05:43:21.120048+00:00",
        "meta_object_name": "COSMOS 2251 DEB",
        "meta_object_id": "1993-036JW",
        "meta_epoch": "2025-12-08T20:55:53.881824",
        "meta_mean_motion": 14.52914632,
        "meta_eccentricity": 0.001872,
        "meta_inclination": 74.0377,
        "meta_ra_of_asc_node": 193.5723,
        "meta_arg_of_pericenter": 271.2249,
        "meta_mean_anomaly": 107.3901,
        "meta_ephemeris_type": 0,
        "meta_classification_type": "U",
        "meta_norad_cat_id": 34059,
        "meta_element_set_no": 999,
        "meta_rev_at_epoch": 88403,
        "meta_bstar": 0.0012795,
        "meta_mean_motion_dot": 5.258e-05,
        "meta_mean_motion_ddot": 0,
        "tle_line1": "1 34059U 93036JW  25342.87215141  .00005258  00000+0  12795-2 0  9992",
        "tle_line2": "2 34059  74.0377 193.5723 0018720 271.2249 107.3901 14.52914632884037"
      },
      "geometry": {
        "type": "Point",
        "coordinates": [
          -3.2214441544126644,
          44.09980678208298
        ]
      }
    },
    {
      "type": "Feature",
      "properties": {
        "norad_id": 34061,
        "name": "COSMOS 2251 DEB",
        "group": "cosmos-2251-debris",
        "lat": -71.79614368237625,
        "lon": -150.61996995287979,
        "alt_km": 758.9238139710442,
        "timestamp": "2025-12-09T05:43:21.120059+00:00",
        "meta_object_name": "COSMOS 2251 DEB",
        "meta_object_id": "1993-036JY",
        "meta_epoch": "2025-12-08T20:24:15.653088",
        "meta_mean_motion": 14.4034522,
        "meta_eccentricity": 0.0020401,
        "meta_inclination": 74.0403,
        "meta_ra_of_asc_node": 270.5785,
        "meta_arg_of_pericenter": 348.1345,
        "meta_mean_anomaly": 78.558,
        "meta_ephemeris_type": 0,
        "meta_classification_type": "U",
        "meta_norad_cat_id": 34061,
        "meta_element_set_no": 999,
        "meta_rev_at_epoch": 88124,
        "meta_bstar": 0.00071415,
        "meta_mean_motion_dot": 2.245e-05,
        "meta_mean_motion_ddot": 0,
        "tle_line1": "1 34061U 93036JY  25342.85018117  .00002245  00000+0  71415-3 0  9995",
        "tle_line2": "2 34061  74.0403 270.5785 0020401 348.1345  78.5580 14.40345220881244"
      },
      "geometry": {
        "type": "Point",
        "coordinates": [
          -150.61996995287979,
          -71.79614368237625
        ]
      }
    },
    {
      "type": "Feature",
      "properties": {
        "norad_id": 34062,
        "name": "COSMOS 2251 DEB",
        "group": "cosmos-2251-debris",
        "lat": -71.68712081072265,
        "lon": 84.99327941356201,
        "alt_km": 610.2291887122456,
        "timestamp": "2025-12-09T05:43:21.120069+00:00",
        "meta_object_name": "COSMOS 2251 DEB",
        "meta_object_id": "1993-036JZ",
        "meta_epoch": "2025-12-08T20:54:34.297920",
        "meta_mean_motion": 14.78412156,
        "meta_eccentricity": 0.0075324,
        "meta_inclination": 74.0276,
        "meta_ra_of_asc_node": 145.6423,
        "meta_arg_of_pericenter": 225.4524,
        "meta_mean_anomaly": 259.3393,
        "meta_ephemeris_type": 0,
        "meta_classification_type": "U",
        "meta_norad_cat_id": 34062,
        "meta_element_set_no": 999,
        "meta_rev_at_epoch": 88538,
        "meta_bstar": 0.0043848,
        "meta_mean_motion_dot": 0.00033633,
        "meta_mean_motion_ddot": 0,
        "tle_line1": "1 34062U 93036JZ  25342.87123030  .00033633  00000+0  43848-2 0  9992",
        "tle_line2": "2 34062  74.0276 145.6423 0075324 225.4524 259.3393 14.78412156885388"
      },
      "geometry": {
        "type": "Point",
        "coordinates": [
          84.99327941356201,
          -71.68712081072265
        ]
      }
    },
    {
      "type": "Feature",
      "properties": {
        "norad_id": 34064,
        "name": "COSMOS 2251 DEB",
        "group": "cosmos-2251-debris",
        "lat": -45.27931160123796,
        "lon": 114.16795590078434,
        "alt_km": 764.2122470574723,
        "timestamp": "2025-12-09T05:43:21.120080+00:00",
        "meta_object_name": "COSMOS 2251 DEB",
        "meta_object_id": "1993-036KB",
        "meta_epoch": "2025-12-08T18:47:41.448768",
        "meta_mean_motion": 14.42317219,
        "meta_eccentricity": 0.0021983,
        "meta_inclination": 74.0334,
        "meta_ra_of_asc_node": 278.2078,
        "meta_arg_of_pericenter": 345.1293,
        "meta_mean_anomaly": 39.4417,
        "meta_ephemeris_type": 0,
        "meta_classification_type": "U",
        "meta_norad_cat_id": 34064,
        "meta_element_set_no": 999,
        "meta_rev_at_epoch": 88085,
        "meta_bstar": 0.0010527,
        "meta_mean_motion_dot": 3.461e-05,
        "meta_mean_motion_ddot": 0,
        "tle_line1": "1 34064U 93036KB  25342.78311862  .00003461  00000+0  10527-2 0  9990",
        "tle_line2": "2 34064  74.0334 278.2078 0021983 345.1293  39.4417 14.42317219880855"
      },
      "geometry": {
        "type": "Point",
        "coordinates": [
          114.16795590078434,
          -45.27931160123796
        ]
      }
    },
    {
      "type": "Feature",
      "properties": {
        "norad_id": 34065,
        "name": "COSMOS 2251 DEB",
        "group": "cosmos-2251-debris",
        "lat": -60.966961144960244,
        "lon": -126.47476744643787,
        "alt_km": 767.4141005372267,
        "timestamp": "2025-12-09T05:43:21.120091+00:00",
        "meta_object_name": "COSMOS 2251 DEB",
        "meta_object_id": "1993-036KC",
        "meta_epoch": "2025-12-08T12:11:39.356160",
        "meta_mean_motion": 14.38055941,
        "meta_eccentricity": 0.00161815,
        "meta_inclination": 74.0359,
        "meta_ra_of_asc_node": 265.915,
        "meta_arg_of_pericenter": 4.3197,
        "meta_mean_anomaly": 111.0013,
        "meta_ephemeris_type": 0,
        "meta_classification_type": "U",
        "meta_norad_cat_id": 34065,
        "meta_element_set_no": 999,
        "meta_rev_at_epoch": 88144,
        "meta_bstar": 0.00034480998,
        "meta_mean_motion_dot": 1.019e-05,
        "meta_mean_motion_ddot": 0,
        "tle_line1": "1 34065U 93036KC  25342.50809440  .00001019  00000+0  34481-3 0  9998",
        "tle_line2": "2 34065  74.0359 265.9150 0016181   4.3197 111.0013 14.38055941881449"
      },
      "geometry": {
        "type": "Point",
        "coordinates": [
          -126.47476744643787,
          -60.966961144960244
        ]
      }
    }
  ]
}